INTELSAT 902 (IS-902)   
1 26900U 01039A   26191.30593167 -.00000279  00000+0  00000+0 0  9990
2 26900   6.1736  71.5000 0004430  34.5835 242.1751  1.00271554 90921
INTELSAT 904 (IS-904)   
1 27380U 02007A   26191.08517065 -.00000221  00000+0  00000+0 0  9994
2 27380   6.9741  68.9058 0005469  22.5700 195.7302  1.00272023 51993
DIRECTV 5 (TEMPO 1)     
1 27426U 02023A   26191.30802150 -.00000051  00000+0  00000+0 0  9991
2 27426   4.9338  75.0208 0003043  39.1246 174.8663  1.00271025 88354
INTELSAT 905 (IS-905)   
1 27438U 02027A   26190.75554020  .00000100  00000+0  00000+0 0  9990
2 27438   6.8070  69.5248 0003614  44.7572 308.2054  1.00272621 51586
GALAXY 3C (G-3C)        
1 27445U 02030A   26191.26298478 -.00000146  00000+0  00000+0 0  9992
2 27445   3.7900  77.6765 0001540  38.2606 172.1000  1.00270979 46721
INTELSAT 906 (IS-906)   
1 27513U 02041A   26191.19955841  .00000018  00000+0  00000+0 0  9993
2 27513   5.8592  72.6383 0003959  18.7055 332.7527  1.00272124 87250
GALAXY 13 (HORIZONS-1)  
1 27954U 03044A   26191.25206473  .00000142  00000+0  00000+0 0  9991
2 27954   1.4773  83.5703 0002209  20.4589 124.8941  1.00269068 46807
INTELSAT 10-02          
1 28358U 04022A   26191.28153154 -.00000002  00000+0  00000+0 0  9993
2 28358   0.0520 260.4623 0000384  27.8997 100.1928  1.00264463 80785
DIRECTV 8               
1 28659U 05019A   26191.34141279  .00000012  00000+0  00000+0 0  9996
2 28659   0.0148  71.5249 0003046  51.4467 169.1508  1.00270851 77304
GALAXY 28 (G-28)        
1 28702U 05022A   26191.20507015 -.00000193  00000+0  00000+0 0  9999
2 28702   3.3546  78.6476 0002105  36.5256 219.6806  1.00269814 52207
GALAXY 16 (G-16)        
1 29236U 06023A   26191.26211810 -.00000116  00000+0  00000+0 0  9990
2 29236   0.0336 119.2143 0002467 357.3797 166.9548  1.00271508 73202
DIRECTV 9S              
1 29494U 06043A   26191.22356340 -.00000105  00000+0  00000+0 0  9990
2 29494   2.4771  80.6254 0005038  31.4976 155.3089  1.00270972 51614
GALAXY 17 (G-17)        
1 31307U 07016B   26191.26489145 -.00000198  00000+0  00000+0 0  9993
2 31307   3.0270  79.6093 0003592  30.7858 188.1340  1.00271194 70032
INTELSAT 11 (IS-11)     
1 32253U 07044B   26191.21529686 -.00000028  00000+0  00000+0 0  9997
2 32253   3.6222  78.3901 0003979  99.0248 212.7056  0.99050467 68670
HORIZONS-2              
1 32388U 07063B   26191.30808817 -.00000245  00000+0  00000+0 0  9994
2 32388   2.6587  80.3423 0003609  16.7979 228.2122  1.00270902 68049
DIRECTV 11              
1 32729U 08013A   26191.04821574 -.00000114  00000+0  00000+0 0  9990
2 32729   0.0376 213.5585 0000260  20.0966 332.4949  1.00273035 45825
GALAXY 18 (G-18)        
1 32951U 08024A   26191.34066385  .00000000  00000+0  00000+0 0  9996
2 32951   0.0238  34.3606 0002756  88.0414 165.5061  1.00270166 46087
GALAXY 19 (G-19)        
1 33376U 08045A   26191.26255144 -.00000128  00000+0  00000+0 0  9997
2 33376   0.0543 250.3294 0002361 226.4408 168.9247  1.00272460 65133
FM-5                    
1 35493U 09034A   26191.31906358 -.00000189  00000+0  00000+0 0  9991
2 35493   0.0334 277.7695 0000348  38.0404   1.1277  1.00270176 46870
INTELSAT 14 (IS-14)     
1 36097U 09064A   26191.29141795 -.00000263  00000+0  00000+0 0  9991
2 36097   0.0171  21.5837 0002268  92.4455 234.1098  1.00271866 60834
INTELSAT 15 (IS-15)     
1 36106U 09067A   26191.29851829 -.00000174  00000+0  00000+0 0  9992
2 36106   0.0133  46.2936 0002132  70.3937   4.1554  1.00271566 41464
DIRECTV 12              
1 36131U 09075A   26191.31079870 -.00000092  00000+0  00000+0 0  9999
2 36131   0.0415 195.9222 0000389  17.7237  83.7439  1.00270817 46788
INTELSAT 16 (IS-16)     
1 36397U 10006A   26191.30808817 -.00000234  00000+0  00000+0 0  9997
2 36397   0.0118   8.1899 0002256 123.2493 191.5045  1.00271638 59887
XM-5                    
1 37185U 10053A   26191.30635405 -.00000012  00000+0  00000+0 0  9990
2 37185   0.0614 268.0589 0001858 315.7617  59.5021  1.00272157 57714
INTELSAT 17 (IS-17)     
1 37238U 10065B   26191.18914152  .00000010  00000+0  00000+0 0  9994
2 37238   0.0152  87.3979 0002659  24.9211 309.8780  1.00271695 53472
INTELSAT 28 (IS-28)     
1 37392U 11016A   26191.27546484 -.00000216  00000+0  00000+0 0  9990
2 37392   1.8629  82.3359 0003703  36.9458 236.3621  1.00272311 53514
INTELSAT 18 (IS-18)     
1 37834U 11056A   26191.17476771  .00000064  00000+0  00000+0 0  9995
2 37834   0.0299 278.7041 0001726 208.2780  44.0320  1.00273145 54048
INTELSAT 22 (IS-22)     
1 38098U 12011A   26191.19955841  .00000000  00000+0  00000+0 0  9992
2 38098   0.0350  65.2122 0001870  64.9902 301.8490  1.00271096  7415
INTELSAT 19 (IS-19)     
1 38356U 12030A   26190.88691154 -.00000044  00000+0  00000+0 0  9998
2 38356   0.0177  25.6635 0003126  96.1223 291.3213  1.00271536 50678
INTELSAT 20 (IS-20)     
1 38740U 12043A   26190.98725301  .00000000  00000+0  00000+0 0  9993
2 38740   0.0436  68.8286 0003359 128.7460 154.2151  1.00267370 50979
INTELSAT 21 (IS-21)     
1 38749U 12045A   26191.29697285  .00000000  00000+0  00000+0 0  9998
2 38749   0.0271  34.8228 0001693  97.5479 204.7582  1.00270243 50754
INTELSAT 23 (IS-23)     
1 38867U 12057A   26191.06250187 -.00000273  00000+0  00000+0 0  9996
2 38867   0.0141  34.5412 0000462 184.3558  38.5923  1.00269710 50185
FM-6                    
1 39360U 13058A   26191.34355187 -.00000005  00000+0  00000+0 0  9997
2 39360   0.0173  37.8546 0001269 139.1643 118.5748  1.00269774 46305
INTELSAT 30 (IS-30)     
1 40271U 14062A   26191.26289811 -.00000140  00000+0  00000+0 0  9997
2 40271   0.0192  51.4260 0001237 336.2755 260.0814  1.00271243  7020
DIRECTV 14              
1 40333U 14078B   26191.26211810 -.00000114  00000+0  00000+0 0  9998
2 40333   0.0098  16.4578 0000235 270.9204 355.9331  1.00267269 42274
DIRECTV 15              
1 40663U 15026A   26191.31079771 -.00000092  00000+0  00000+0 0  9997
2 40663   0.0196  72.6714 0000125 162.6704  61.9069  1.00272568 40699
SKY MEXICO-1            
1 40664U 15026B   26191.30808817 -.00000224  00000+0  00000+0 0  9995
2 40664   0.0178 353.0003 0002319 137.9443 189.4027  1.00271575 40685
INTELSAT 34 (IS-34)     
1 40874U 15039A   26191.05688244 -.00000274  00000+0  00000+0 0  9999
2 40874   0.0101  16.1720 0000122 324.1781 272.6171  1.00270657 39865
INTELSAT 31 (IS-31)     
1 41581U 16035A   26191.26289811 -.00000140  00000+0  00000+0 0  9994
2 41581   0.0186 278.5787 0001013 347.5471  21.6525  1.00271183 36919
INTELSAT 36 (IS-36)     
1 41747U 16053A   26191.17525213 -.00000013  00000+0  00000+0 0  9996
2 41747   0.0102 354.9716 0002514 346.8192  77.8966  1.00268599 36189
INTELSAT 32E (IS-32E)   
1 41945U 17007B   26191.13065417  .00000000  00000+0  00000+0 0  9992
2 41945   0.0258  33.0821 0000341 235.9737  22.8541  1.00267562 34458
INTELSAT 35E (IS-35E)   
1 42818U 17041A   26191.34238486 -.00000228  00000+0  00000+0 0  9994
2 42818   0.0029 110.0779 0001575 359.3114 267.6476  1.00270512 33041
INTELSAT 37E (IS-37E)   
1 42950U 17059A   26191.27815152 -.00000130  00000+0  00000+0 0  9995
2 42950   0.0174  46.5596 0002530  70.0094 253.7716  1.00270806 32290
AZERSPACE 2 (IS-38)     
1 43632U 18074A   26191.21937022  .00000000  00000+0  00000+0 0  9991
2 43632   0.0249  29.3091 0001272  98.0981 284.8304  1.00272725 28674
HORIZONS-3E             
1 43633U 18074B   26190.81617841 -.00000018  00000+0  00000+0 0  9991
2 43633   0.0363 213.3135 0000781  67.3154 109.9513  1.00272318 28566
AT&T T-16               
1 44333U 19034A   26190.90528495 -.00000103  00000+0  00000+0 0  9997
2 44333   0.0147  67.1818 0000718 252.0909 193.6074  1.00271911 25868
INTELSAT 39 (IS-39)     
1 44476U 19049B   26191.18914152  .00000000  00000+0  00000+0 0  9996
2 44476   0.0245  29.4915 0001092 296.0424  92.6209  1.00266683 25352
GALAXY 30 (G-30)        
1 46114U 20056C   26191.25700475  .00000000  00000+0  00000+0 0  9996
2 46114   0.0256  34.1445 0001938  79.9597 141.5979  1.00270345 21527
GALAXY 33 (G-33)        
1 54026U 22128A   26191.33662884  .00000090  00000+0  00000+0 0  9998
2 54026   0.0161   9.6093 0001798 107.0110 159.8280  1.00270649 13971
GALAXY 34 (G-34)        
1 54027U 22128B   26191.33871220  .00000070  00000+0  00000+0 0  9993
2 54027   0.0117  33.8074 0001498  90.3264 157.0600  1.00265764 14140
GALAXY 31 (G-31)        
1 54243U 22153A   26191.34177934  .00000000  00000+0  00000+0 0  9996
2 54243   0.0190  42.7700 0000932  80.0001 167.5317  1.00269816  7362
GALAXY 32 (G-32)        
1 54244U 22153B   26191.26376478 -.00000163  00000+0  00000+0 0  9993
2 54244   0.0095  29.5174 0001507  17.2587 245.3708  1.00271315 13379
GALAXY 35 (G-35)        
1 54741U 22170A   26191.30992721  .00000000  00000+0  00000+0 0  9993
2 54741   0.0164  28.5392 0001861  87.0011 191.1661  1.00269617 13120
GALAXY 36 (G-36)        
1 54742U 22170B   26191.26411145 -.00000174  00000+0  00000+0 0  9998
2 54742   0.0260 117.6924 0002426 341.0636 195.5164  1.00271533 13006
GALAXY 37 (G-37)        
1 57493U 23112A   26191.33794499  .00000059  00000+0  00000+0 0  9996
2 57493   0.0150  54.9369 0001789  59.1388 168.8462  1.00270378 10779
